[{"OBJECT_NAME":"KUIPER-00047","OBJECT_ID":"2025-134H","EPOCH":"2026-03-26T10:44:58.026048","MEAN_MOTION":14.83597052,"ECCENTRICITY":0.000151,"INCLINATION":51.8983,"RA_OF_ASC_NODE":141.639,"ARG_OF_PERICENTER":111.2079,"MEAN_ANOMALY":248.9047,"EPHEMERIS_TYPE":0,"CLASSIFICATION_TYPE":"U","NORAD_CAT_ID":64507,"ELEMENT_SET_NO":999,"REV_AT_EPOCH":4279,"BSTAR":0.00047294,"MEAN_MOTION_DOT":3.71e-5,"MEAN_MOTION_DDOT":0},{"OBJECT_NAME":"KUIPER-00048","OBJECT_ID":"2025-134J","EPOCH":"2026-03-26T12:45:12.892608","MEAN_MOTION":14.7993487,"ECCENTRICITY":6.97e-5,"INCLINATION":51.8992,"RA_OF_ASC_NODE":141.1023,"ARG_OF_PERICENTER":79.995,"MEAN_ANOMALY":280.1091,"EPHEMERIS_TYPE":0,"CLASSIFICATION_TYPE":"U","NORAD_CAT_ID":64508,"ELEMENT_SET_NO":999,"REV_AT_EPOCH":4281,"BSTAR":-0.00053041,"MEAN_MOTION_DOT":-4.262e-5,"MEAN_MOTION_DDOT":0},{"OBJECT_NAME":"KUIPER-00049","OBJECT_ID":"2025-134K","EPOCH":"2026-03-26T10:51:11.621376","MEAN_MOTION":14.83538317,"ECCENTRICITY":8.14e-5,"INCLINATION":51.8996,"RA_OF_ASC_NODE":154.2708,"ARG_OF_PERICENTER":202.5721,"MEAN_ANOMALY":157.5207,"EPHEMERIS_TYPE":0,"CLASSIFICATION_TYPE":"U","NORAD_CAT_ID":64509,"ELEMENT_SET_NO":999,"REV_AT_EPOCH":4262,"BSTAR":0.0005441,"MEAN_MOTION_DOT":4.297e-5,"MEAN_MOTION_DDOT":0},{"OBJECT_NAME":"KUIPER-00050","OBJECT_ID":"2025-134L","EPOCH":"2026-03-26T12:00:01.999296","MEAN_MOTION":14.82951255,"ECCENTRICITY":6.97e-5,"INCLINATION":51.8998,"RA_OF_ASC_NODE":136.2468,"ARG_OF_PERICENTER":147.0519,"MEAN_ANOMALY":183.0066,"EPHEMERIS_TYPE":0,"CLASSIFICATION_TYPE":"U","NORAD_CAT_ID":64510,"ELEMENT_SET_NO":999,"REV_AT_EPOCH":585,"BSTAR":-0.0098272,"MEAN_MOTION_DOT":-0.00079819,"MEAN_MOTION_DDOT":0},{"OBJECT_NAME":"KUIPER-00051","OBJECT_ID":"2025-134M","EPOCH":"2026-03-26T11:41:22.209504","MEAN_MOTION":14.7992157,"ECCENTRICITY":0.0001267,"INCLINATION":51.9003,"RA_OF_ASC_NODE":151.3279,"ARG_OF_PERICENTER":89.7344,"MEAN_ANOMALY":270.3763,"EPHEMERIS_TYPE":0,"CLASSIFICATION_TYPE":"U","NORAD_CAT_ID":64511,"ELEMENT_SET_NO":999,"REV_AT_EPOCH":4266,"BSTAR":0.00049282,"MEAN_MOTION_DOT":3.537e-5,"MEAN_MOTION_DDOT":0},{"OBJECT_NAME":"KUIPER-00053","OBJECT_ID":"2025-134P","EPOCH":"2026-03-26T10:56:09.525120","MEAN_MOTION":14.79977036,"ECCENTRICITY":3.34e-5,"INCLINATION":51.901,"RA_OF_ASC_NODE":148.9555,"ARG_OF_PERICENTER":280.2646,"MEAN_ANOMALY":79.8279,"EPHEMERIS_TYPE":0,"CLASSIFICATION_TYPE":"U","NORAD_CAT_ID":64513,"ELEMENT_SET_NO":999,"REV_AT_EPOCH":4269,"BSTAR":0.00030927,"MEAN_MOTION_DOT":2.14e-5,"MEAN_MOTION_DDOT":0},{"OBJECT_NAME":"KUIPER-00054","OBJECT_ID":"2025-134Q","EPOCH":"2026-03-26T12:41:37.024800","MEAN_MOTION":14.79928799,"ECCENTRICITY":5.59e-5,"INCLINATION":51.8998,"RA_OF_ASC_NODE":143.5991,"ARG_OF_PERICENTER":68.7044,"MEAN_ANOMALY":291.3978,"EPHEMERIS_TYPE":0,"CLASSIFICATION_TYPE":"U","NORAD_CAT_ID":64514,"ELEMENT_SET_NO":999,"REV_AT_EPOCH":4277,"BSTAR":-4.4659e-5,"MEAN_MOTION_DOT":-5.61e-6,"MEAN_MOTION_DDOT":0},{"OBJECT_NAME":"KUIPER-00055","OBJECT_ID":"2025-134R","EPOCH":"2026-03-26T07:56:01.802688","MEAN_MOTION":15.20981324,"ECCENTRICITY":0.0002315,"INCLINATION":51.8953,"RA_OF_ASC_NODE":101.3446,"ARG_OF_PERICENTER":79.3056,"MEAN_ANOMALY":280.8184,"EPHEMERIS_TYPE":0,"CLASSIFICATION_TYPE":"U","NORAD_CAT_ID":64515,"ELEMENT_SET_NO":999,"REV_AT_EPOCH":4335,"BSTAR":0.00058501,"MEAN_MOTION_DOT":0.00012836,"MEAN_MOTION_DDOT":0},{"OBJECT_NAME":"KUIPER-00056","OBJECT_ID":"2025-134S","EPOCH":"2026-03-26T10:07:58.956096","MEAN_MOTION":14.79918018,"ECCENTRICITY":6.26e-5,"INCLINATION":51.903,"RA_OF_ASC_NODE":149.1247,"ARG_OF_PERICENTER":101.5901,"MEAN_ANOMALY":258.5131,"EPHEMERIS_TYPE":0,"CLASSIFICATION_TYPE":"U","NORAD_CAT_ID":64516,"ELEMENT_SET_NO":999,"REV_AT_EPOCH":4269,"BSTAR":-0.00030542,"MEAN_MOTION_DOT":-2.548e-5,"MEAN_MOTION_DDOT":0},{"OBJECT_NAME":"KUIPER-00057","OBJECT_ID":"2025-134T","EPOCH":"2026-03-26T11:33:30.704832","MEAN_MOTION":14.79905657,"ECCENTRICITY":5.58e-5,"INCLINATION":51.8978,"RA_OF_ASC_NODE":156.3246,"ARG_OF_PERICENTER":97.5975,"MEAN_ANOMALY":262.505,"EPHEMERIS_TYPE":0,"CLASSIFICATION_TYPE":"U","NORAD_CAT_ID":64517,"ELEMENT_SET_NO":999,"REV_AT_EPOCH":4259,"BSTAR":-0.00043353,"MEAN_MOTION_DOT":-3.522e-5,"MEAN_MOTION_DDOT":0},{"OBJECT_NAME":"KUIPER-00058","OBJECT_ID":"2025-134U","EPOCH":"2026-03-26T10:52:43.703904","MEAN_MOTION":14.79926471,"ECCENTRICITY":6.37e-5,"INCLINATION":51.9006,"RA_OF_ASC_NODE":151.4069,"ARG_OF_PERICENTER":57.8503,"MEAN_ANOMALY":302.2521,"EPHEMERIS_TYPE":0,"CLASSIFICATION_TYPE":"U","NORAD_CAT_ID":64518,"ELEMENT_SET_NO":999,"REV_AT_EPOCH":4266,"BSTAR":-0.0001522,"MEAN_MOTION_DOT":-1.381e-5,"MEAN_MOTION_DDOT":0},{"OBJECT_NAME":"KUIPER-00059","OBJECT_ID":"2025-134V","EPOCH":"2026-03-26T11:00:29.215008","MEAN_MOTION":14.79928181,"ECCENTRICITY":2.19e-5,"INCLINATION":51.8984,"RA_OF_ASC_NODE":146.4318,"ARG_OF_PERICENTER":264.2746,"MEAN_ANOMALY":95.8191,"EPHEMERIS_TYPE":0,"CLASSIFICATION_TYPE":"U","NORAD_CAT_ID":64519,"ELEMENT_SET_NO":999,"REV_AT_EPOCH":4273,"BSTAR":6.6926e-6,"MEAN_MOTION_DOT":-1.7e-6,"MEAN_MOTION_DDOT":0},{"OBJECT_NAME":"KUIPER-00060","OBJECT_ID":"2025-134W","EPOCH":"2026-03-26T08:34:35.931648","MEAN_MOTION":14.79929656,"ECCENTRICITY":5.43e-5,"INCLINATION":51.902,"RA_OF_ASC_NODE":146.9172,"ARG_OF_PERICENTER":88.3811,"MEAN_ANOMALY":271.7214,"EPHEMERIS_TYPE":0,"CLASSIFICATION_TYPE":"U","NORAD_CAT_ID":64520,"ELEMENT_SET_NO":999,"REV_AT_EPOCH":4270,"BSTAR":0.00045654,"MEAN_MOTION_DOT":3.261e-5,"MEAN_MOTION_DDOT":0},{"OBJECT_NAME":"KUIPER-00061","OBJECT_ID":"2025-134X","EPOCH":"2026-03-26T10:48:50.087808","MEAN_MOTION":14.79938428,"ECCENTRICITY":9.16e-5,"INCLINATION":51.9007,"RA_OF_ASC_NODE":153.9752,"ARG_OF_PERICENTER":91.7161,"MEAN_ANOMALY":268.3906,"EPHEMERIS_TYPE":0,"CLASSIFICATION_TYPE":"U","NORAD_CAT_ID":64521,"ELEMENT_SET_NO":999,"REV_AT_EPOCH":4261,"BSTAR":0.00043373,"MEAN_MOTION_DOT":3.087e-5,"MEAN_MOTION_DDOT":0},{"OBJECT_NAME":"KUIPER-00062","OBJECT_ID":"2025-134Y","EPOCH":"2026-03-26T10:44:53.401920","MEAN_MOTION":14.79914135,"ECCENTRICITY":0.0001639,"INCLINATION":51.8963,"RA_OF_ASC_NODE":156.5134,"ARG_OF_PERICENTER":89.8954,"MEAN_ANOMALY":270.2196,"EPHEMERIS_TYPE":0,"CLASSIFICATION_TYPE":"U","NORAD_CAT_ID":64522,"ELEMENT_SET_NO":999,"REV_AT_EPOCH":4259,"BSTAR":-0.0016837,"MEAN_MOTION_DOT":-0.00013026,"MEAN_MOTION_DDOT":0},{"OBJECT_NAME":"KUIPER-00063","OBJECT_ID":"2025-134Z","EPOCH":"2026-03-26T12:10:28.514208","MEAN_MOTION":14.79940831,"ECCENTRICITY":1.82e-5,"INCLINATION":51.9029,"RA_OF_ASC_NODE":163.7352,"ARG_OF_PERICENTER":6.7379,"MEAN_ANOMALY":353.3586,"EPHEMERIS_TYPE":0,"CLASSIFICATION_TYPE":"U","NORAD_CAT_ID":64523,"ELEMENT_SET_NO":999,"REV_AT_EPOCH":4249,"BSTAR":-0.00099492,"MEAN_MOTION_DOT":-7.798e-5,"MEAN_MOTION_DDOT":0},{"OBJECT_NAME":"KUIPER-00064","OBJECT_ID":"2025-134AA","EPOCH":"2026-03-26T08:59:57.096960","MEAN_MOTION":14.80043053,"ECCENTRICITY":7.57e-5,"INCLINATION":51.9023,"RA_OF_ASC_NODE":161.7426,"ARG_OF_PERICENTER":97.2401,"MEAN_ANOMALY":262.8647,"EPHEMERIS_TYPE":0,"CLASSIFICATION_TYPE":"U","NORAD_CAT_ID":64524,"ELEMENT_SET_NO":999,"REV_AT_EPOCH":4251,"BSTAR":0.00051723,"MEAN_MOTION_DOT":3.734e-5,"MEAN_MOTION_DDOT":0}]
