KUIPER-00047            
1 64507U 25134H   26085.44789382  .00003710  00000+0  47294-3 0  9992
2 64507  51.8983 141.6390 0001510 111.2079 248.9047 14.83597052 42790
KUIPER-00048            
1 64508U 25134J   26085.53139922 -.00004262  00000+0 -53041-3 0  9994
2 64508  51.8992 141.1023 0000697  79.9950 280.1091 14.79934870 42810
KUIPER-00049            
1 64509U 25134K   26085.45221784  .00004297  00000+0  54410-3 0  9991
2 64509  51.8996 154.2708 0000814 202.5721 157.5207 14.83538317 42627
KUIPER-00050            
1 64510U 25134L   26085.50002314 -.00079819  00000+0 -98272-2 0  9992
2 64510  51.8998 136.2468 0000697 147.0519 183.0066 14.82951255  5851
KUIPER-00051            
1 64511U 25134M   26085.48706261  .00003537  00000+0  49282-3 0  9992
2 64511  51.9003 151.3279 0001267  89.7344 270.3763 14.79921570 42667
KUIPER-00053            
1 64513U 25134P   26085.45566580  .00002140  00000+0  30927-3 0  9994
2 64513  51.9010 148.9555 0000334 280.2646  79.8279 14.79977036 42698
KUIPER-00054            
1 64514U 25134Q   26085.52890075 -.00000561  00000+0 -44659-4 0  9997
2 64514  51.8998 143.5991 0000559  68.7044 291.3978 14.79928799 42776
KUIPER-00055            
1 64515U 25134R   26085.33057642  .00012836  00000+0  58501-3 0  9998
2 64515  51.8953 101.3446 0002315  79.3056 280.8184 15.20981324 43355
KUIPER-00056            
1 64516U 25134S   26085.42221014 -.00002548  00000+0 -30542-3 0  9991
2 64516  51.9030 149.1247 0000626 101.5901 258.5131 14.79918018 42695
KUIPER-00057            
1 64517U 25134T   26085.48160538 -.00003522  00000+0 -43353-3 0  9998
2 64517  51.8978 156.3246 0000558  97.5975 262.5050 14.79905657 42593
KUIPER-00058            
1 64518U 25134U   26085.45328361 -.00001381  00000+0 -15220-3 0  9999
2 64518  51.9006 151.4069 0000637  57.8503 302.2521 14.79926471 42660
KUIPER-00059            
1 64519U 25134V   26085.45867147 -.00000170  00000+0  66926-5 0  9995
2 64519  51.8984 146.4318 0000219 264.2746  95.8191 14.79928181 42731
KUIPER-00060            
1 64520U 25134W   26085.35736032  .00003261  00000+0  45654-3 0  9990
2 64520  51.9020 146.9172 0000543  88.3811 271.7214 14.79929656 42702
KUIPER-00061            
1 64521U 25134X   26085.45057972  .00003087  00000+0  43373-3 0  9993
2 64521  51.9007 153.9752 0000916  91.7161 268.3906 14.79938428 42617
KUIPER-00062            
1 64522U 25134Y   26085.44784030 -.00013026  00000+0 -16837-2 0  9995
2 64522  51.8963 156.5134 0001639  89.8954 270.2196 14.79914135 42591
KUIPER-00063            
1 64523U 25134Z   26085.50727447 -.00007798  00000+0 -99492-3 0  9990
2 64523  51.9029 163.7352 0000182   6.7379 353.3586 14.79940831 42496
KUIPER-00064            
1 64524U 25134AA  26085.37496640  .00003734  00000+0  51723-3 0  9993
2 64524  51.9023 161.7426 0000757  97.2401 262.8647 14.80043053 42517
